start=new Date('2021-09-21T00:00:00.000Z').valueOf();
sats=[{"OBJECT_TYPE":"PAYLOAD","MEAN_ANOMALY":"251.9962","NORAD_CAT_ID":"46555","MEAN_MOTION":"15.42301352","CENTER_NAME":"EARTH","SITE":"AFETR","ELEMENT_SET_NO":"999","MEAN_ELEMENT_THEORY":"SGP4","APOAPSIS":"440.187","TLE_LINE1":"1 46555U 20070Z   21263.60231356  .00354641  00000-0  77507-2 0  9995","ARG_OF_PERICENTER":"108.1180","PERIOD":"93.367","REV_AT_EPOCH":"5427","TLE_LINE2":"2 46555  53.0495 255.8404 0001270 108.1180 251.9962 15.42301352 54278","RCS_SIZE":"LARGE","PERIAPSIS":"438.455","COUNTRY_CODE":"US","SEMIMAJOR_AXIS":"6817.456","ECCENTRICITY":"0.00012700","BSTAR":"0.00775070000000","FILE":"3121334","OBJECT_ID":"2020-070Z","INCLINATION":"53.0495","MEAN_MOTION_DDOT":"0.0000000000000","MEAN_MOTION_DOT":"0.00354641","LAUNCH_DATE":"2020-10-06","EPHEMERIS_TYPE":"0","EPOCH":"2021-09-20T14:27:19.891584","DECAY_DATE":null,"RA_OF_ASC_NODE":"255.8404","TIME_SYSTEM":"UTC","CLASSIFICATION_TYPE":"U","REF_FRAME":"TEME","GP_ID":"185102016","OBJECT_NAME":"STARLINK-1674"},{"REF_FRAME":"TEME","CLASSIFICATION_TYPE":"U","TIME_SYSTEM":"UTC","RA_OF_ASC_NODE":"297.9429","DECAY_DATE":null,"OBJECT_NAME":"STARLINK-1676","GP_ID":"185123207","INCLINATION":"53.0551","OBJECT_ID":"2020-070AA","FILE":"3121356","BSTAR":"-0.00004757000000","ECCENTRICITY":"0.00007160","EPOCH":"2021-09-20T19:21:43.416864","EPHEMERIS_TYPE":"0","LAUNCH_DATE":"2020-10-06","MEAN_MOTION_DOT":"-0.00000990","MEAN_MOTION_DDOT":"0.0000000000000","RCS_SIZE":"LARGE","TLE_LINE2":"2 46556  53.0551 297.9429 0000716  84.2110 275.8961 15.06396548 53697","REV_AT_EPOCH":"5369","COUNTRY_CODE":"US","SEMIMAJOR_AXIS":"6925.359","PERIAPSIS":"546.728","CENTER_NAME":"EARTH","MEAN_MOTION":"15.06396548","NORAD_CAT_ID":"46556","MEAN_ANOMALY":"275.8961","OBJECT_TYPE":"PAYLOAD","PERIOD":"95.592","ARG_OF_PERICENTER":"84.2110","TLE_LINE1":"1 46556U 20070AA  21263.80675251 -.00000990  00000-0 -47570-4 0  9990","MEAN_ELEMENT_THEORY":"SGP4","APOAPSIS":"547.720","ELEMENT_SET_NO":"999","SITE":"AFETR"},{"REF_FRAME":"TEME","TIME_SYSTEM":"UTC","CLASSIFICATION_TYPE":"U","DECAY_DATE":null,"RA_OF_ASC_NODE":"283.0415","OBJECT_NAME":"STARLINK-1679","GP_ID":"185122957","FILE":"3121356","INCLINATION":"53.0543","OBJECT_ID":"2020-070AB","BSTAR":"-0.00000886620000","ECCENTRICITY":"0.00007450","EPHEMERIS_TYPE":"0","EPOCH":"2021-09-20T18:49:12.415008","LAUNCH_DATE":"2020-10-06","MEAN_MOTION_DDOT":"0.0000000000000","MEAN_MOTION_DOT":"-0.00000413","RCS_SIZE":"LARGE","TLE_LINE2":"2 46557  53.0543 283.0415 0000745  82.9292 277.1781 15.06392708 53901","REV_AT_EPOCH":"5390","COUNTRY_CODE":"US","SEMIMAJOR_AXIS":"6925.371","PERIAPSIS":"546.720","MEAN_MOTION":"15.06392708","CENTER_NAME":"EARTH","NORAD_CAT_ID":"46557","OBJECT_TYPE":"PAYLOAD","MEAN_ANOMALY":"277.1781","PERIOD":"95.593","ARG_OF_PERICENTER":"82.9292","MEAN_ELEMENT_THEORY":"SGP4","APOAPSIS":"547.752","TLE_LINE1":"1 46557U 20070AB  21263.78417147 -.00000413  00000-0 -88662-5 0  9994","SITE":"AFETR","ELEMENT_SET_NO":"999"},{"COUNTRY_CODE":"US","SEMIMAJOR_AXIS":"6925.376","PERIAPSIS":"546.786","TLE_LINE2":"2 46558  53.0525 283.0157 0000657  76.2506 283.8556 15.06391111 53878","RCS_SIZE":"LARGE","REV_AT_EPOCH":"5387","MEAN_ELEMENT_THEORY":"SGP4","APOAPSIS":"547.696","TLE_LINE1":"1 46558U 20070AC  21263.79153915 -.00000495  00000-0 -14337-4 0  9993","PERIOD":"95.593","ARG_OF_PERICENTER":"76.2506","ELEMENT_SET_NO":"999","SITE":"AFETR","MEAN_MOTION":"15.06391111","CENTER_NAME":"EARTH","OBJECT_TYPE":"PAYLOAD","MEAN_ANOMALY":"283.8556","NORAD_CAT_ID":"46558","OBJECT_NAME":"STARLINK-1680","GP_ID":"185124209","REF_FRAME":"TEME","DECAY_DATE":null,"RA_OF_ASC_NODE":"283.0157","TIME_SYSTEM":"UTC","CLASSIFICATION_TYPE":"U","LAUNCH_DATE":"2020-10-06","EPHEMERIS_TYPE":"0","EPOCH":"2021-09-20T18:59:48.982560","MEAN_MOTION_DDOT":"0.0000000000000","MEAN_MOTION_DOT":"-0.00000495","FILE":"3121356","INCLINATION":"53.0525","OBJECT_ID":"2020-070AC","ECCENTRICITY":"0.00006570","BSTAR":"-0.00001433700000"},{"SEMIMAJOR_AXIS":"6925.364","COUNTRY_CODE":"US","PERIAPSIS":"546.567","RCS_SIZE":"LARGE","TLE_LINE2":"2 46559  53.0537 268.3562 0000955  51.7719 308.3356 15.06395064 54090","REV_AT_EPOCH":"5409","APOAPSIS":"547.890","MEAN_ELEMENT_THEORY":"SGP4","TLE_LINE1":"1 46559U 20070AD  21263.71368045  .00001176  00000-0  97853-4 0  9997","ARG_OF_PERICENTER":"51.7719","PERIOD":"95.592","ELEMENT_SET_NO":"999","SITE":"AFETR","MEAN_MOTION":"15.06395064","CENTER_NAME":"EARTH","OBJECT_TYPE":"PAYLOAD","MEAN_ANOMALY":"308.3356","NORAD_CAT_ID":"46559","OBJECT_NAME":"STARLINK-1681","GP_ID":"185123959","REF_FRAME":"TEME","DECAY_DATE":null,"RA_OF_ASC_NODE":"268.3562","TIME_SYSTEM":"UTC","CLASSIFICATION_TYPE":"U","LAUNCH_DATE":"2020-10-06","EPHEMERIS_TYPE":"0","EPOCH":"2021-09-20T17:07:41.990880","MEAN_MOTION_DDOT":"0.0000000000000","MEAN_MOTION_DOT":"0.00001176","FILE":"3121356","INCLINATION":"53.0537","OBJECT_ID":"2020-070AD","ECCENTRICITY":"0.00009550","BSTAR":"0.00009785300000"},{"MEAN_MOTION":"15.06391170","CENTER_NAME":"EARTH","OBJECT_TYPE":"PAYLOAD","MEAN_ANOMALY":"268.6558","NORAD_CAT_ID":"46560","MEAN_ELEMENT_THEORY":"SGP4","APOAPSIS":"547.759","TLE_LINE1":"1 46560U 20070AE  21263.34186035  .00000997  00000-0  85833-4 0  9990","PERIOD":"95.593","ARG_OF_PERICENTER":"91.4517","ELEMENT_SET_NO":"999","SITE":"AFETR","RCS_SIZE":"LARGE","TLE_LINE2":"2 46560  53.0550 285.0331 0000749  91.4517 268.6558 15.06391170 53832","REV_AT_EPOCH":"5383","COUNTRY_CODE":"US","SEMIMAJOR_AXIS":"6925.376","PERIAPSIS":"546.722","FILE":"3121163","OBJECT_ID":"2020-070AE","INCLINATION":"53.0550","ECCENTRICITY":"0.00007490","BSTAR":"0.00008583300000","LAUNCH_DATE":"2020-10-06","EPHEMERIS_TYPE":"0","EPOCH":"2021-09-20T08:12:16.734240","MEAN_MOTION_DDOT":"0.0000000000000","MEAN_MOTION_DOT":"0.00000997","REF_FRAME":"TEME","DECAY_DATE":null,"RA_OF_ASC_NODE":"285.0331","TIME_SYSTEM":"UTC","CLASSIFICATION_TYPE":"U","OBJECT_NAME":"STARLINK-1706","GP_ID":"185097523"},{"RCS_SIZE":"LARGE","TLE_LINE2":"2 46561  53.0545 283.1784 0000460  62.6076 297.4960 15.06399177 53896","REV_AT_EPOCH":"5389","COUNTRY_CODE":"US","SEMIMAJOR_AXIS":"6925.351","PERIAPSIS":"546.898","MEAN_MOTION":"15.06399177","CENTER_NAME":"EARTH","OBJECT_TYPE":"PAYLOAD","MEAN_ANOMALY":"297.4960","NORAD_CAT_ID":"46561","MEAN_ELEMENT_THEORY":"SGP4","APOAPSIS":"547.535","TLE_LINE1":"1 46561U 20070AF  21263.75468844  .00000898  00000-0  79176-4 0  9990","ARG_OF_PERICENTER":"62.6076","PERIOD":"95.592","ELEMENT_SET_NO":"999","SITE":"AFETR","REF_FRAME":"TEME","DECAY_DATE":null,"RA_OF_ASC_NODE":"283.1784","TIME_SYSTEM":"UTC","CLASSIFICATION_TYPE":"U","OBJECT_NAME":"STARLINK-1709","GP_ID":"185123458","FILE":"3121356","OBJECT_ID":"2020-070AF","INCLINATION":"53.0545","ECCENTRICITY":"0.00004600","BSTAR":"0.00007917600000","LAUNCH_DATE":"2020-10-06","EPHEMERIS_TYPE":"0","EPOCH":"2021-09-20T18:06:45.081216","MEAN_MOTION_DDOT":"0.0000000000000","MEAN_MOTION_DOT":"0.00000898"},{"TLE_LINE1":"1 46562U 20070AG  21263.75698516  .00000557  00000-0  56299-4 0  9995","MEAN_ELEMENT_THEORY":"SGP4","APOAPSIS":"547.762","PERIOD":"95.592","ARG_OF_PERICENTER":"65.4348","ELEMENT_SET_NO":"999","SITE":"AFETR","CENTER_NAME":"EARTH","MEAN_MOTION":"15.06399806","MEAN_ANOMALY":"294.6724","OBJECT_TYPE":"PAYLOAD","NORAD_CAT_ID":"46562","COUNTRY_CODE":"US","SEMIMAJOR_AXIS":"6925.349","PERIAPSIS":"546.666","RCS_SIZE":"LARGE","TLE_LINE2":"2 46562  53.0545 278.1644 0000791  65.4348 294.6724 15.06399806 53960","REV_AT_EPOCH":"5396","LAUNCH_DATE":"2020-10-06","EPOCH":"2021-09-20T18:10:03.517824","EPHEMERIS_TYPE":"0","MEAN_MOTION_DOT":"0.00000557","MEAN_MOTION_DDOT":"0.0000000000000","INCLINATION":"53.0545","OBJECT_ID":"2020-070AG","FILE":"3121356","ECCENTRICITY":"0.00007910","BSTAR":"0.00005629900000","OBJECT_NAME":"STARLINK-1714","GP_ID":"185123709","REF_FRAME":"TEME","RA_OF_ASC_NODE":"278.1644","DECAY_DATE":null,"CLASSIFICATION_TYPE":"U","TIME_SYSTEM":"UTC"},{"MEAN_MOTION_DDOT":"0.0000000000000","MEAN_MOTION_DOT":"0.00000531","EPHEMERIS_TYPE":"0","EPOCH":"2021-09-20T17:43:31.373184","LAUNCH_DATE":"2020-10-06","BSTAR":"0.00005453800000","ECCENTRICITY":"0.00005110","FILE":"3121356","INCLINATION":"53.0532","OBJECT_ID":"2020-070AH","GP_ID":"185124460","OBJECT_NAME":"STARLINK-1730","TIME_SYSTEM":"UTC","CLASSIFICATION_TYPE":"U","DECAY_DATE":null,"RA_OF_ASC_NODE":"278.2404","REF_FRAME":"TEME","ELEMENT_SET_NO":"999","SITE":"AFETR","PERIOD":"95.593","ARG_OF_PERICENTER":"69.8252","MEAN_ELEMENT_THEORY":"SGP4","APOAPSIS":"547.604","TLE_LINE1":"1 46563U 20070AH  21263.73855756  .00000531  00000-0  54538-4 0  9991","NORAD_CAT_ID":"46563","OBJECT_TYPE":"PAYLOAD","MEAN_ANOMALY":"290.2792","CENTER_NAME":"EARTH","MEAN_MOTION":"15.06388099","PERIAPSIS":"546.896","COUNTRY_CODE":"US","SEMIMAJOR_AXIS":"6925.385","REV_AT_EPOCH":"5396","TLE_LINE2":"2 46563  53.0532 278.2404 0000511  69.8252 290.2792 15.06388099 53963","RCS_SIZE":"LARGE"},{"OBJECT_NAME":"STARLINK-1733","GP_ID":"185097024","REF_FRAME":"TEME","DECAY_DATE":null,"RA_OF_ASC_NODE":"279.5228","TIME_SYSTEM":"UTC","CLASSIFICATION_TYPE":"U","LAUNCH_DATE":"2020-10-06","EPHEMERIS_TYPE":"0","EPOCH":"2021-09-20T10:54:48.748896","MEAN_MOTION_DDOT":"0.0000000000000","MEAN_MOTION_DOT":"0.00001289","FILE":"3121163","INCLINATION":"53.0545","OBJECT_ID":"2020-070AJ","ECCENTRICITY":"0.00008050","BSTAR":"0.00010535000000","SEMIMAJOR_AXIS":"6925.332","COUNTRY_CODE":"US","PERIAPSIS":"546.639","RCS_SIZE":"LARGE","TLE_LINE2":"2 46564  53.0545 279.5228 0000805  68.3108 291.7966 15.06405443 53924","REV_AT_EPOCH":"5392","APOAPSIS":"547.754","MEAN_ELEMENT_THEORY":"SGP4","TLE_LINE1":"1 46564U 20070AJ  21263.45473089  .00001289  00000-0  10535-3 0  9995","ARG_OF_PERICENTER":"68.3108","PERIOD":"95.592","SITE":"AFETR","ELEMENT_SET_NO":"999","MEAN_MOTION":"15.06405443","CENTER_NAME":"EARTH","OBJECT_TYPE":"PAYLOAD","MEAN_ANOMALY":"291.7966","NORAD_CAT_ID":"46564"}];
